First Name,Last Name,Street,City,State,Zip,Phone,Email
Dustin,York,5438 Duis Ave,Davenport,IA,55077,(231) 759-5083,dui.Cum@a.ca
John,Gilliam,4829 Ridiculus Ave,Olympia,WA,86232,(172) 192-5293,tortor.Integer.aliquam@Vivamusmolestiedapibus.edu
Taylor,Dillon,P.O. Box 553  1269 Lorem  Ave,Naperville,IL,60249,(504) 651-4418,Phasellus.fermentum.convallis@magnisdisparturient.ca
Dane,Curtis,P.O. Box 160  4848 Mauris Rd.,Biloxi,MS,30976,(937) 489-3390,sagittis.felis.Donec@diam.edu
Matthew,Ellison,599-3086 Euismod Avenue,Chandler,AZ,85985,(720) 604-2493,montes.nascetur.ridiculus@utpharetra.co.uk
Eugenia,May,P.O. Box 535  7190 Nisl. Rd.,Joliet,IL,50396,(900) 171-3093,purus@tortor.net
Timothy,Williamson,125-699 Sapien. St.,Anchorage,AK,99724,(509) 749-2893,Integer.vitae@sapien.ca
Driscoll,Fitzpatrick,2301 Urna. St.,Harrisburg,PA,30329,(339) 286-5501,orci.Phasellus.dapibus@fermentummetusAenean.net
Giacomo,Mays,P.O. Box 942  8185 A  Rd.,Jackson,MS,24271,(640) 880-6522,dui@Sedeu.com
Gannon,Romero,Ap #571-9960 Commodo Road,Frederick,MD,67842,(266) 944-3128,sem.ut.dolor@malesuada.org
Tatum,Tyson,P.O. Box 689  216 Praesent Rd.,Lexington,KY,21624,(612) 442-8414,aliquet.nec@neque.co.uk
Colby,Pacheco,P.O. Box 998  1571 Erat. Rd.,Allentown,PA,43766,(818) 332-5776,enim.Suspendisse@sitametorci.org
Carla,Anderson,1210 Facilisis St.,Newport News,VA,97191,(438) 821-0649,mauris.Suspendisse.aliquet@Sed.org
Regan,Kaufman,2161 Eu Rd.,Butte,MT,66551,(420) 914-0459,ullamcorper.velit.in@scelerisque.com
Joshua,Cooper,178-9002 Fusce Road,Harrisburg,PA,96430,(726) 155-2682,enim@acfeugiat.net
Flavia,King,Ap #797-1558 Nunc Rd.,Lawton,OK,29921,(627) 637-2512,odio.a@diamDuismi.org
Heidi,Bender,P.O. Box 172  1496 Aliquet  Rd.,Springfield,MA,48412,(387) 813-5563,elementum.lorem@bibendumfermentummetus.co.uk
Grant,Mitchell,P.O. Box 160  4046 Auctor Street,Chattanooga,TN,56241,(295) 565-0327,Proin@purusNullam.edu
Joy,Paul,P.O. Box 712  7158 Pellentesque Rd.,Fayetteville,AR,72741,(410) 135-1035,lorem.sit.amet@sagittis.net
Brian,Shepherd,P.O. Box 610  1152 Mus. Av.,Duluth,MN,68093,(233) 636-0189,lorem@acturpis.edu
Jackson,Best,971-4846 Commodo Av.,Kailua,HI,10291,(127) 514-9505,Suspendisse.ac.metus@etcommodo.org
Tate,Washington,Ap #816-1492 Eget St.,Clarksville,TN,89145,(980) 332-3691,ac@Proinsed.com
Oscar,Phelps,Ap #575-1909 Quisque Av.,Bear,DE,36417,(138) 790-5306,dapibus.quam@laoreetipsum.edu
Cadman,Snyder,1938 Odio. St.,Kenosha,WI,46614,(614) 880-5454,malesuada.Integer.id@elitelit.ca
Carlos,Wade,P.O. Box 663  8075 Orci Av.,Paradise,NV,25181,(348) 695-1461,quam.Pellentesque@Donecporttitortellus.co.uk
Lewis,Frye,Ap #139-580 Curae; St.,Sioux City,IA,82391,(321) 632-8895,ante@auctorullamcorper.edu
Ifeoma,Campos,Ap #327-3566 Et Rd.,Portland,ME,92727,(708) 544-4147,nibh@pede.org
Oleg,Dunlap,P.O. Box 489  2956 Phasellus Avenue,Colorado Springs,CO,56285,(474) 326-7382,vitae.mauris@montesnascetur.net
John,Lewis,Ap #951-3245 Suspendisse Rd.,Madison,WI,97132,(358) 254-1797,ultrices.posuere@risusodio.ca
Denton,Harris,P.O. Box 662  7324 Convallis Street,Jackson,MS,73842,(772) 904-2242,Aenean.eget.magna@risus.ca
Lacy,Baxter,4013 Sem. Rd.,Honolulu,HI,20237,(689) 673-5143,magna.Phasellus@massa.com
Driscoll,Meadows,353-7525 Nunc Rd.,Springfield,MO,73288,(708) 758-8720,Maecenas.libero@Nullam.com
Keith,Logan,Ap #612-8706 Nisl. Av.,Duluth,MN,68873,(206) 155-3129,urna.Ut.tincidunt@elitfermentum.edu
Dakota,Heath,8598 Semper. Ave,New Haven,CT,40981,(308) 131-2673,a.sollicitudin@velitCras.net
David,Goff,Ap #923-9760 Vel  Avenue,Norman,OK,67846,(481) 983-8854,sed.dictum.eleifend@acmattisornare.co.uk
Hayden,Reilly,P.O. Box 175  7025 Nec Avenue,Oklahoma City,OK,98376,(586) 143-2473,Quisque.ornare.tortor@estmollis.net
Allegra,Small,680-6850 Nonummy Avenue,Hillsboro,OR,80707,(618) 211-1488,Suspendisse.dui.Fusce@purusaccumsaninterdum.org
Kendall,White,Ap #663-5391 Enim. St.,Tuscaloosa,AL,36121,(459) 577-7321,eget.tincidunt.dui@metusVivamus.com
Alden,Hughes,Ap #325-3141 Porttitor St.,Frankfort,KY,62692,(699) 659-5927,eget.metus.eu@necleo.edu
Cora,Snider,P.O. Box 596  6060 Nam Street,Cleveland,OH,96928,(838) 957-0956,imperdiet.ullamcorper.Duis@pedeCrasvulputate.org
Kareem,Vega,Ap #637-3505 Lorem Avenue,Gresham,OR,96030,(527) 240-4544,mi@Suspendisse.edu
Kirk,Atkins,867-7771 Vestibulum. St.,Nampa,ID,81694,(737) 794-7928,consectetuer@Integer.org
Ashton,Morgan,756-7364 Nunc St.,North Las Vegas,NV,63149,(329) 766-1631,egestas.a@elitpellentesquea.co.uk
Abbot,Campos,P.O. Box 426  6253 Lacinia Rd.,Huntsville,AL,36198,(266) 521-9537,est@esttemporbibendum.edu
Gil,Holder,7004 Tellus. Rd.,South Portland,ME,92361,(329) 921-8249,nunc@aliquam.edu
Jackson,Patrick,Ap #737-1572 Varius St.,Gulfport,MS,28721,(870) 359-2780,eget.dictum@Sedmalesuadaaugue.ca
Stuart,Zamora,P.O. Box 688  9241 Purus Street,Evansville,IN,77883,(641) 368-5374,neque.sed@odioEtiam.net
Xyla,Barnes,3920 Porttitor St.,Gresham,OR,44817,(978) 115-1440,cursus.Nunc.mauris@sitametlorem.edu
Derek,Stanton,Ap #849-6994 Volutpat. St.,Waterbury,CT,95418,(378) 537-9690,augue@idmagnaet.org
Elaine,Dunlap,7966 Ut  Rd.,Bear,DE,11456,(752) 605-0296,ac@lobortisquispede.edu
Wayne,Giles,9750 Leo. Avenue,Glendale,AZ,85288,(326) 816-9663,ligula.Nullam.enim@Incondimentum.ca
Zia,Cortez,4695 Proin Road,Worcester,MA,87959,(815) 194-0328,ipsum@luctus.ca
Tana,Edwards,Ap #245-6851 Velit Rd.,Tallahassee,FL,22995,(340) 844-2748,nulla@tempor.net
Dillon,Wells,875-3996 Pretium Ave,Mesa,AZ,86356,(189) 527-5011,dapibus@mifelis.org
MacKenzie,Ruiz,Ap #968-3491 Ac Street,Norfolk,VA,29431,(824) 369-7633,Duis.sit@sollicitudin.edu
Griffin,Jackson,Ap #476-8190 Morbi St.,Cambridge,MA,44628,(370) 782-5915,faucibus.Morbi@ac.edu
Philip,Holder,P.O. Box 153  6639 Placerat Street,Springfield,MO,13461,(286) 294-2730,quam.a@Duisatlacus.ca
Roanna,Bowen,104-8887 Risus Avenue,Dallas,TX,73471,(697) 644-1702,ut@nuncsedpede.net
Summer,Taylor,Ap #806-4739 Aliquam Rd.,Chesapeake,VA,44600,(798) 236-5218,nascetur.ridiculus.mus@nec.edu
Jacob,Sanders,P.O. Box 269  7199 Integer Avenue,Toledo,OH,31319,(640) 636-6157,eu@arcuVivamus.ca
Ashely,Hudson,Ap #183-583 Fermentum St.,Tampa,FL,46043,(763) 145-1014,cursus.diam.at@egetnisidictum.co.uk
Richard,Barry,P.O. Box 279  4403 Dapibus St.,Frederick,MD,29603,(793) 269-5584,sed.libero.Proin@turpisAliquam.ca
Jael,Burns,926-3381 Morbi Street,Reno,NV,32972,(802) 578-8820,mus.Proin.vel@vitae.edu
Lev,Christensen,P.O. Box 955  9925 Pede  Av.,Rochester,MN,80838,(300) 582-8714,posuere@commodotinciduntnibh.com
Gary,Byers,9129 Nullam Street,Des Moines,IA,13636,(727) 545-7541,at@anteMaecenas.org
Macaulay,Bernard,1045 Etiam Ave,Akron,OH,74760,(552) 637-3716,diam.luctus@hendreritnequeIn.org
Mary,Morris,Ap #319-7198 Velit. Rd.,Kailua,HI,85682,(157) 432-2307,turpis.vitae@metusAenean.ca
Urielle,Sargent,5557 Porttitor St.,Portland,ME,51962,(954) 395-9630,adipiscing.non.luctus@vehicularisus.co.uk
Sigourney,Adams,P.O. Box 496  610 Ac Road,Hillsboro,OR,36189,(765) 541-6212,ut.lacus@sitametconsectetuer.edu
Deanna,Salas,4894 Elit. Av.,San Jose,CA,95500,(388) 363-2326,ornare@elitfermentum.org
Willa,Yang,Ap #738-6122 Imperdiet Rd.,South Bend,IN,60778,(751) 727-1360,nulla.Integer.vulputate@lacusQuisque.net
Amber,Wade,920-797 Magna Rd.,Saint Paul,MN,63902,(883) 785-5716,porttitor.scelerisque.neque@vitae.edu
Omar,Terry,210-2715 Nam Road,Indianapolis,IN,38587,(931) 516-8749,arcu.Nunc.mauris@orci.ca
Kiara,Noel,P.O. Box 132  4540 A  Ave,Anchorage,AK,99787,(719) 761-0941,pharetra@musDonec.edu
Jacob,Mcleod,972 Cras Rd.,Pittsburgh,PA,92348,(186) 743-8261,sed.sapien@Suspendisse.co.uk
Ashton,Odom,627-770 Quisque Road,San Jose,CA,94742,(223) 667-5817,Nunc@Duisatlacus.edu
Hu,Jordan,Ap #657-9666 Ac Rd.,Indianapolis,IN,54195,(217) 397-7498,commodo@convallisante.net
Philip,Barlow,Ap #647-8472 Ridiculus Avenue,Tallahassee,FL,77073,(671) 754-7739,gravida.mauris@euarcu.com
Sebastian,Boyle,697-1263 Auctor Street,Seattle,WA,99337,(736) 317-1718,ante.blandit.viverra@quisdiamluctus.com
Montana,Haney,Ap #468-4675 Ac St.,Cincinnati,OH,97249,(904) 663-0170,consequat@Integeraliquamadipiscing.ca
Sage,Hess,815-2066 Vestibulum. Ave,Eugene,OR,23179,(638) 180-5668,eu@liberoet.net
Melvin,Andrews,2456 Nec Av.,Tallahassee,FL,29879,(535) 588-5008,libero.at.auctor@augueSed.com
Tashya,Mendoza,1145 Ut St.,Little Rock,AR,72460,(428) 907-6451,Praesent.eu.dui@feugiattelluslorem.edu
Graiden,Lynn,P.O. Box 684  590 Sed St.,Kearney,NE,27336,(418) 749-3637,ornare.elit.elit@turpis.net
Donovan,Avery,Ap #258-381 Id St.,Cleveland,OH,92054,(548) 778-4015,adipiscing.fringilla.porttitor@nequeNullam.com
Wyoming,Pate,7012 Elit St.,Vancouver,WA,49538,(387) 837-9025,quam.elementum@necurnaet.ca
Jorden,Fischer,710-5904 In Avenue,Bloomington,MN,50414,(714) 518-8224,mollis@eu.ca
Ali,Madden,P.O. Box 743  1907 Mi. St.,Topeka,KS,70658,(196) 162-6185,Phasellus@Nuncmauris.edu
Channing,Dickson,170-3764 Orci. Street,Saint Louis,MO,62970,(548) 689-8050,eu@arcuVestibulumut.co.uk
Odette,Mcdowell,6499 Ridiculus Avenue,Norfolk,VA,97548,(647) 640-3868,risus.Donec@sollicitudin.com
Lucian,Clayton,3687 Phasellus Avenue,Butte,MT,50493,(286) 770-3187,id.erat@nuncidenim.ca
Brynn,Mcfadden,6525 Lacinia. Rd.,Austin,TX,78230,(304) 835-0286,a.odio.semper@mauris.edu
Rylee,Mercer,340-511 Tortor Street,Los Angeles,CA,92541,(885) 144-2304,rutrum.non@non.com
Hu,Kidd,551-9475 Eu Rd.,Cincinnati,OH,76680,(787) 376-4880,orci@disparturientmontes.edu
Tate,Roy,170-8938 Elit. Ave,West Jordan,UT,99836,(527) 272-6868,arcu.vel@In.edu
Jolene,Hoffman,278-9627 Luctus St.,Toledo,OH,97467,(835) 157-6236,erat@ipsum.ca
Daquan,Lewis,P.O. Box 156  8182 Ut Rd.,Indianapolis,IN,17373,(855) 522-3373,Class.aptent@aliquetodio.org
Autumn,Newton,1306 Consequat Ave,Clarksville,TN,62354,(879) 235-6039,leo.elementum.sem@amet.edu
Kerry,Mendez,P.O. Box 456  2547 Aliquam  Av.,Dallas,TX,24292,(639) 921-6699,eget.mollis@ligulaAenean.co.uk
Macy,Lowery,788-9348 Quis  Ave,Nashville,TN,93686,(184) 720-6018,non.sapien@lectuspedeet.com
